OBJECT_NAME,OBJECT_ID,EPOCH,MEAN_MOTION,ECCENTRICITY,INCLINATION,RA_OF_ASC_NODE,ARG_OF_PERICENTER,MEAN_ANOMALY,EPHEMERIS_TYPE,CLASSIFICATION_TYPE,NORAD_CAT_ID,ELEMENT_SET_NO,REV_AT_EPOCH,BSTAR,MEAN_MOTION_DOT,MEAN_MOTION_DDOT
ONEWEB-0410,2022-012A,2026-06-19T00:57:14.329152,13.17648648,.00029885,87.9142,5.4887,71.3605,288.7851,0,U,51622,999,21394,-.1553151E-3,-.47E-6,0
ONEWEB-0411,2022-012B,2026-06-19T01:47:38.613408,13.10344158,.00018829,87.8837,35.8908,105.8618,254.2717,0,U,51623,999,20953,-.1669564E-1,-.5809E-4,0
ONEWEB-0415,2022-012C,2026-06-18T22:02:54.922272,13.10341608,.0001673,87.8837,35.9210,90.4710,269.6609,0,U,51624,999,20951,-.63722E-2,-.221E-4,0
ONEWEB-0416,2022-012D,2026-06-19T01:59:42.610848,13.10280278,.00022696,87.8829,35.9058,91.7464,268.3924,0,U,51625,999,20957,-.91632293E-3,-.307E-5,0
ONEWEB-0422,2022-012E,2026-06-19T01:11:49.374528,13.17648702,.00011956,87.9140,5.4879,90.4459,269.6810,0,U,51626,999,21405,.15036869E-3,.71E-6,0
ONEWEB-0423,2022-012F,2026-06-19T06:30:08.570592,13.17650776,.00019234,87.9134,5.4492,85.3999,274.7352,0,U,51627,999,21397,-.8343609E-4,-.2E-6,0
ONEWEB-0425,2022-012G,2026-06-19T04:04:08.038272,13.10240886,.00020241,87.8827,35.8723,75.5936,284.5416,0,U,51628,999,20958,-.30092191E-2,-.1036E-4,0
ONEWEB-0428,2022-012H,2026-06-19T01:45:14.645952,13.10340509,.00018364,87.8831,35.8985,86.7412,273.3925,0,U,51629,999,20953,-.11075802E-1,-.385E-4,0
ONEWEB-0431,2022-012J,2026-06-19T01:01:43.228416,13.10422345,.00012788,87.8845,35.8956,96.7451,263.3822,0,U,51630,999,20958,.10067157E-1,.3531E-4,0
ONEWEB-0434,2022-012K,2026-06-19T04:09:09.320256,13.10223674,.00023237,87.8830,35.8964,72.0459,288.0922,0,U,51631,999,20958,-.44618666E-3,-.143E-5,0
ONEWEB-0435,2022-012L,2026-06-19T04:20:07.649376,13.10481597,.00014466,87.8824,35.8814,87.8668,272.2625,0,U,51632,999,20957,.10406537E-1,.3653E-4,0
ONEWEB-0436,2022-012M,2026-06-19T06:17:59.272512,13.17648649,.00016757,87.9140,5.4331,92.2920,267.8404,0,U,51633,999,21395,-.18070916E-3,-.57E-6,0
ONEWEB-0438,2022-012N,2026-06-19T02:06:56.749248,13.10257965,.00019376,87.8827,35.9024,80.2237,279.9109,0,U,51634,999,20959,.13130375E-2,.47E-5,0
ONEWEB-0439,2022-012P,2026-06-19T04:01:44.280768,13.10246785,.00017582,87.8824,35.8741,79.7256,280.4069,0,U,51635,999,20958,.54795977E-3,.204E-5,0
ONEWEB-0442,2022-012Q,2026-06-19T06:07:03.652032,13.17649038,.00023706,87.9129,5.4670,80.9578,279.1821,0,U,51636,999,21394,-.18055454E-3,-.57E-6,0
ONEWEB-0443,2022-012R,2026-06-19T01:06:56.826720,13.17649532,.00017252,87.9131,5.5094,77.5705,282.5620,0,U,51637,999,21396,-.49957402E-4,-.7E-7,0
ONEWEB-0444,2022-012S,2026-06-19T01:57:18.670176,13.10290669,.00017553,87.8828,35.8899,77.5773,282.5551,0,U,51638,999,20958,-.166376E-2,-.567E-5,0
ONEWEB-0445,2022-012T,2026-06-19T04:17:42.842976,13.10484302,.0001783,87.8837,35.8587,87.4507,272.6824,0,U,51639,999,20960,.12782494E-1,.4484E-4,0
ONEWEB-0446,2022-012U,2026-06-19T01:54:53.293536,13.10292905,.00019848,87.8833,35.9069,85.8284,274.3070,0,U,51640,999,20957,-.76098773E-4,-.14E-6,0
ONEWEB-0448,2022-012V,2026-06-19T02:02:07.248768,13.10280540,.00018816,87.8826,35.9024,84.7514,275.3828,0,U,51641,999,20954,-.42017956E-2,-.1452E-4,0
ONEWEB-0449,2022-012W,2026-06-19T02:09:21.139200,13.10266431,.00020621,87.8827,35.8871,73.6034,286.5320,0,U,51642,999,20955,-.75202055E-2,-.2608E-4,0
ONEWEB-0451,2022-012X,2026-06-19T06:13:08.731776,13.17648410,.00020108,87.9142,5.4311,82.8652,277.2708,0,U,51643,999,21393,-.31502834E-3,-.109E-5,0
ONEWEB-0452,2022-012Y,2026-06-19T06:10:41.793024,13.17649630,.00018644,87.9132,5.4679,78.7021,281.4320,0,U,51644,999,21394,-.96720951E-4,-.25E-6,0
ONEWEB-0456,2022-012AA,2026-06-19T04:12:53.244000,13.10499357,.00015575,87.8837,35.8577,82.4650,277.6654,0,U,51646,999,20960,.11473373E-1,.4027E-4,0
ONEWEB-0457,2022-012AB,2026-06-18T23:59:54.638880,13.10311909,.00028481,87.8836,35.9105,88.7451,271.4003,0,U,51647,999,20958,-.26310967E-2,-.905E-5,0
ONEWEB-0458,2022-012AC,2026-06-19T04:10:55.249248,13.10370055,.00017978,87.8833,35.8637,76.6863,283.4465,0,U,51648,999,20956,.1301129E-3,.58E-6,0
ONEWEB-0461,2022-012AD,2026-06-19T06:42:17.353728,13.17648421,.00019608,87.9140,5.4409,90.1966,269.9390,0,U,51649,999,21416,-.88300047E-4,-.21E-6,0
ONEWEB-0463,2022-012AE,2026-06-19T06:15:34.275168,13.17649174,.00019901,87.9130,5.4670,91.2697,268.8663,0,U,51650,999,21394,.11218329E-4,.17E-6,0
ONEWEB-0464,2022-012AF,2026-06-19T04:06:32.676192,13.10232152,.00014948,87.8822,35.8859,76.7040,283.4254,0,U,51651,999,20958,-.54555207E-3,-.177E-5,0
ONEWEB-0468,2022-012AG,2026-06-19T04:15:17.977824,13.10498394,.00013762,87.8826,35.8786,77.1877,282.9404,0,U,51652,999,20956,.78559541E-2,.2761E-4,0
