ONEWEB-0410             
1 51622U 22012A   26170.03974918 -.00000047  00000+0 -15532-3 0  9991
2 51622  87.9142   5.4887 0002988  71.3605 288.7851 13.17648648213946
ONEWEB-0411             
1 51623U 22012B   26170.07475247 -.00005809  00000+0 -16696-1 0  9998
2 51623  87.8837  35.8908 0001882 105.8618 254.2717 13.10344158209538
ONEWEB-0415             
1 51624U 22012C   26169.91869123 -.00002210  00000+0 -63722-2 0  9996
2 51624  87.8837  35.9210 0001673  90.4710 269.6609 13.10341608209511
ONEWEB-0416             
1 51625U 22012D   26170.08313207 -.00000307  00000+0 -91632-3 0  9991
2 51625  87.8829  35.9058 0002269  91.7464 268.3924 13.10280278209572
ONEWEB-0422             
1 51626U 22012E   26170.04987702  .00000071  00000+0  15037-3 0  9996
2 51626  87.9140   5.4879 0001195  90.4459 269.6810 13.17648702214054
ONEWEB-0423             
1 51627U 22012F   26170.27093253 -.00000020  00000+0 -83436-4 0  9996
2 51627  87.9134   5.4492 0001923  85.3999 274.7352 13.17650776213972
ONEWEB-0425             
1 51628U 22012G   26170.16953748 -.00001036  00000+0 -30092-2 0  9995
2 51628  87.8827  35.8723 0002024  75.5936 284.5416 13.10240886209582
ONEWEB-0428             
1 51629U 22012H   26170.07308618 -.00003850  00000+0 -11076-1 0  9992
2 51629  87.8831  35.8985 0001836  86.7412 273.3925 13.10340509209530
ONEWEB-0431             
1 51630U 22012J   26170.04286144  .00003531  00000+0  10067-1 0  9993
2 51630  87.8845  35.8956 0001278  96.7451 263.3822 13.10422345209588
ONEWEB-0434             
1 51631U 22012K   26170.17302454 -.00000143  00000+0 -44619-3 0  9991
2 51631  87.8830  35.8964 0002323  72.0459 288.0922 13.10223674209588
ONEWEB-0435             
1 51632U 22012L   26170.18064409  .00003653  00000+0  10407-1 0  9991
2 51632  87.8824  35.8814 0001446  87.8668 272.2625 13.10481597209571
ONEWEB-0436             
1 51633U 22012M   26170.26249158 -.00000057  00000+0 -18071-3 0  9991
2 51633  87.9140   5.4331 0001675  92.2920 267.8404 13.17648649213958
ONEWEB-0438             
1 51634U 22012N   26170.08815682  .00000470  00000+0  13130-2 0  9990
2 51634  87.8827  35.9024 0001937  80.2237 279.9109 13.10257965209597
ONEWEB-0439             
1 51635U 22012P   26170.16787362  .00000204  00000+0  54796-3 0  9992
2 51635  87.8824  35.8741 0001758  79.7256 280.4069 13.10246785209584
ONEWEB-0442             
1 51636U 22012Q   26170.25490338 -.00000057  00000+0 -18055-3 0  9993
2 51636  87.9129   5.4670 0002370  80.9578 279.1821 13.17649038213941
ONEWEB-0443             
1 51637U 22012R   26170.04649105 -.00000007  00000+0 -49957-4 0  9990
2 51637  87.9131   5.5094 0001725  77.5705 282.5620 13.17649532213969
ONEWEB-0444             
1 51638U 22012S   26170.08146609 -.00000567  00000+0 -16638-2 0  9995
2 51638  87.8828  35.8899 0001755  77.5773 282.5551 13.10290669209581
ONEWEB-0445             
1 51639U 22012T   26170.17896809  .00004484  00000+0  12782-1 0  9995
2 51639  87.8837  35.8587 0001783  87.4507 272.6824 13.10484302209607
ONEWEB-0446             
1 51640U 22012U   26170.07978349 -.00000014  00000+0 -76099-4 0  9997
2 51640  87.8833  35.9069 0001984  85.8284 274.3070 13.10292905209572
ONEWEB-0448             
1 51641U 22012V   26170.08480612 -.00001452  00000+0 -42018-2 0  9999
2 51641  87.8826  35.9024 0001881  84.7514 275.3828 13.10280540209547
ONEWEB-0449             
1 51642U 22012W   26170.08982800 -.00002608  00000+0 -75202-2 0  9991
2 51642  87.8827  35.8871 0002062  73.6034 286.5320 13.10266431209559
ONEWEB-0451             
1 51643U 22012X   26170.25912884 -.00000109  00000+0 -31503-3 0  9997
2 51643  87.9142   5.4311 0002010  82.8652 277.2708 13.17648410213936
ONEWEB-0452             
1 51644U 22012Y   26170.25742816 -.00000025  00000+0 -96721-4 0  9995
2 51644  87.9132   5.4679 0001864  78.7021 281.4320 13.17649630213946
ONEWEB-0456             
1 51646U 22012AA  26170.17561625  .00004027  00000+0  11473-1 0  9997
2 51646  87.8837  35.8577 0001557  82.4650 277.6654 13.10499357209609
ONEWEB-0457             
1 51647U 22012AB  26169.99993795 -.00000905  00000+0 -26311-2 0  9994
2 51647  87.8836  35.9105 0002848  88.7451 271.4003 13.10311909209582
ONEWEB-0458             
1 51648U 22012AC  26170.17425057  .00000058  00000+0  13011-3 0  9999
2 51648  87.8833  35.8637 0001797  76.6863 283.4465 13.10370055209564
ONEWEB-0461             
1 51649U 22012AD  26170.27936752 -.00000021  00000+0 -88300-4 0  9996
2 51649  87.9140   5.4409 0001960  90.1966 269.9390 13.17648421214164
ONEWEB-0463             
1 51650U 22012AE  26170.26081337  .00000017  00000+0  11218-4 0  9994
2 51650  87.9130   5.4670 0001990  91.2697 268.8663 13.17649174213943
ONEWEB-0464             
1 51651U 22012AF  26170.17121153 -.00000177  00000+0 -54555-3 0  9995
2 51651  87.8822  35.8859 0001494  76.7040 283.4254 13.10232152209587
ONEWEB-0468             
1 51652U 22012AG  26170.17729141  .00002761  00000+0  78560-2 0  9997
2 51652  87.8826  35.8786 0001376  77.1877 282.9404 13.10498394209564
